{
    "bodies": [
        {
            "name": "TNO-73",
            "mass": 0,
            "semi_major_axis": 174.951171875,
            "eccentricity": 0.80712890625,
            "inclination": 0.031105721532125503,
            "longitude_of_ascending_node": 1.1155262925522105,
            "argument_of_perihelion": 5.656294400699852,
            "mean_anomaly": 4.488048354958078
        },
        {
            "name": "TNO-74",
            "mass": 0,
            "semi_major_axis": 175.29296875,
            "eccentricity": 0.8072265625,
            "inclination": 0.03153182730653818,
            "longitude_of_ascending_node": 0.21900925973449867,
            "argument_of_perihelion": 3.9933045216711975,
            "mean_anomaly": 5.651001111321176
        },
        {
            "name": "TNO-75",
            "mass": 0,
            "semi_major_axis": 175.634765625,
            "eccentricity": 0.80732421875,
            "inclination": 0.03195793308095086,
            "longitude_of_ascending_node": 4.076858033519424,
            "argument_of_perihelion": 2.246820481097879,
            "mean_anomaly": 2.605029173985491
        },
        {
            "name": "TNO-76",
            "mass": 0,
            "semi_major_axis": 175.9765625,
            "eccentricity": 0.8074218750000001,
            "inclination": 0.032384038855363534,
            "longitude_of_ascending_node": 2.771464130374154,
            "argument_of_perihelion": 4.352112972610515,
            "mean_anomaly": 2.7268377010830434
        },
        {
            "name": "TNO-77",
            "mass": 0,
            "semi_major_axis": 176.318359375,
            "eccentricity": 0.8075195312500001,
            "inclination": 0.03281014462977622,
            "longitude_of_ascending_node": 1.3315723241728183,
            "argument_of_perihelion": 5.374192741220146,
            "mean_anomaly": 0.8024689823196494
        },
        {
            "name": "TNO-78",
            "mass": 0,
            "semi_major_axis": 176.66015625,
            "eccentricity": 0.8076171875,
            "inclination": 0.03323625040418889,
            "longitude_of_ascending_node": 2.4396062605112583,
            "argument_of_perihelion": 5.927665706099521,
            "mean_anomaly": 3.913438131746797
        },
        {
            "name": "TNO-79",
            "mass": 0,
            "semi_major_axis": 177.001953125,
            "eccentricity": 0.80771484375,
            "inclination": 0.03366235617860157,
            "longitude_of_ascending_node": 4.540913412985321,
            "argument_of_perihelion": 3.6462216538575842,
            "mean_anomaly": 5.274736431267637
        },
        {
            "name": "TNO-80",
            "mass": 0,
            "semi_major_axis": 177.34375,
            "eccentricity": 0.8078125,
            "inclination": 0.03408846195301425,
            "longitude_of_ascending_node": 2.392477077088036,
            "argument_of_perihelion": 2.6590609916393864,
            "mean_anomaly": 4.3353405322672875
        },
        {
            "name": "TNO-81",
            "mass": 0,
            "semi_major_axis": 177.685546875,
            "eccentricity": 0.8079101562500001,
            "inclination": 0.03451456772742693,
            "longitude_of_ascending_node": 3.913020867887291,
            "argument_of_perihelion": 3.3164289944471403,
            "mean_anomaly": 5.032335048761463
        },
        {
            "name": "TNO-82",
            "mass": 0,
            "semi_major_axis": 178.02734375,
            "eccentricity": 0.8080078125000001,
            "inclination": 0.0349406735018396,
            "longitude_of_ascending_node": 2.5742332591319563,
            "argument_of_perihelion": 4.034387636731317,
            "mean_anomaly": 1.6584987212140536
        },
        {
            "name": "TNO-83",
            "mass": 0,
            "semi_major_axis": 178.369140625,
            "eccentricity": 0.80810546875,
            "inclination": 0.035366779276252286,
            "longitude_of_ascending_node": 0.4081770307707203,
            "argument_of_perihelion": 4.72134725848701,
            "mean_anomaly": 4.887964906453402
        },
        {
            "name": "TNO-84",
            "mass": 0,
            "semi_major_axis": 178.7109375,
            "eccentricity": 0.808203125,
            "inclination": 0.03579288505066496,
            "longitude_of_ascending_node": 5.946818241006886,
            "argument_of_perihelion": 3.322263063800935,
            "mean_anomaly": 4.1578208387671935
        },
        {
            "name": "TNO-85",
            "mass": 0,
            "semi_major_axis": 179.052734375,
            "eccentricity": 0.80830078125,
            "inclination": 0.03621899082507764,
            "longitude_of_ascending_node": 5.836141829313067,
            "argument_of_perihelion": 0.40908857427500434,
            "mean_anomaly": 2.227804299055367
        },
        {
            "name": "TNO-86",
            "mass": 0,
            "semi_major_axis": 179.39453125,
            "eccentricity": 0.8083984375000001,
            "inclination": 0.03664509659949032,
            "longitude_of_ascending_node": 5.051364420335309,
            "argument_of_perihelion": 2.3272725306905073,
            "mean_anomaly": 3.2851253260167352
        },
        {
            "name": "TNO-87",
            "mass": 0,
            "semi_major_axis": 179.736328125,
            "eccentricity": 0.8084960937500001,
            "inclination": 0.037071202373902996,
            "longitude_of_ascending_node": 1.722541484437165,
            "argument_of_perihelion": 4.229601861363171,
            "mean_anomaly": 1.2425760904828205
        },
        {
            "name": "TNO-88",
            "mass": 0,
            "semi_major_axis": 180.078125,
            "eccentricity": 0.80859375,
            "inclination": 0.03749730814831567,
            "longitude_of_ascending_node": 3.5540522809532695,
            "argument_of_perihelion": 6.058441176172301,
            "mean_anomaly": 2.1001712711590574
        },
        {
            "name": "TNO-89",
            "mass": 0,
            "semi_major_axis": 180.419921875,
            "eccentricity": 0.80869140625,
            "inclination": 0.037923413922728355,
            "longitude_of_ascending_node": 6.2257318396713845,
            "argument_of_perihelion": 4.748041837126864,
            "mean_anomaly": 3.9342590307817566
        },
        {
            "name": "TNO-90",
            "mass": 0,
            "semi_major_axis": 180.76171875,
            "eccentricity": 0.8087890625,
            "inclination": 0.03834951969714103,
            "longitude_of_ascending_node": 5.996783238479761,
            "argument_of_perihelion": 3.14926213140186,
            "mean_anomaly": 2.34243199924566
        },
        {
            "name": "TNO-91",
            "mass": 0,
            "semi_major_axis": 181.103515625,
            "eccentricity": 0.8088867187500001,
            "inclination": 0.03877562547155371,
            "longitude_of_ascending_node": 5.963464124425345,
            "argument_of_perihelion": 0.6900028167228122,
            "mean_anomaly": 5.150721210784829
        },
        {
            "name": "TNO-92",
            "mass": 0,
            "semi_major_axis": 181.4453125,
            "eccentricity": 0.8089843750000001,
            "inclination": 0.03920173124596638,
            "longitude_of_ascending_node": 2.7408242522559187,
            "argument_of_perihelion": 5.305104850580031,
            "mean_anomaly": 1.0416074558868453
        },
        {
            "name": "TNO-93",
            "mass": 0,
            "semi_major_axis": 181.787109375,
            "eccentricity": 0.80908203125,
            "inclination": 0.039627837020379066,
            "longitude_of_ascending_node": 0.1643291770164561,
            "argument_of_perihelion": 3.012335417782049,
            "mean_anomaly": 5.310350568393188
        },
        {
            "name": "TNO-94",
            "mass": 0,
            "semi_major_axis": 182.12890625,
            "eccentricity": 0.8091796875,
            "inclination": 0.04005394279479174,
            "longitude_of_ascending_node": 5.83674772934698,
            "argument_of_perihelion": 0.25248219394356275,
            "mean_anomaly": 2.0209886214838946
        },
        {
            "name": "TNO-95",
            "mass": 0,
            "semi_major_axis": 182.470703125,
            "eccentricity": 0.80927734375,
            "inclination": 0.04048004856920442,
            "longitude_of_ascending_node": 3.8505099120118844,
            "argument_of_perihelion": 4.289991212808617,
            "mean_anomaly": 4.170063689489654
        },
        {
            "name": "TNO-96",
            "mass": 0,
            "semi_major_axis": 182.8125,
            "eccentricity": 0.8093750000000001,
            "inclination": 0.0409061543436171,
            "longitude_of_ascending_node": 0.611819466297205,
            "argument_of_perihelion": 6.071020543675108,
            "mean_anomaly": 1.0699947206825888
        },
        {
            "name": "TNO-97",
            "mass": 0,
            "semi_major_axis": 183.154296875,
            "eccentricity": 0.8094726562500001,
            "inclination": 0.041332260118029776,
            "longitude_of_ascending_node": 3.144766690677022,
            "argument_of_perihelion": 5.875248497863794,
            "mean_anomaly": 0.9042649910307882
        },
        {
            "name": "TNO-98",
            "mass": 0,
            "semi_major_axis": 183.49609375,
            "eccentricity": 0.8095703125,
            "inclination": 0.04175836589244245,
            "longitude_of_ascending_node": 3.3365437782400202,
            "argument_of_perihelion": 2.9876620708600274,
            "mean_anomaly": 5.985670934010907
        }
    ]
}